[{"OBJECT_NAME":"STARLINK-30704","OBJECT_ID":"2023-148M","EPOCH":"2026-03-09T11:11:38.916096","MEAN_MOTION":15.30195527,"ECCENTRICITY":0.00012368,"INCLINATION":53.1598,"RA_OF_ASC_NODE":102.4833,"ARG_OF_PERICENTER":79.3789,"MEAN_ANOMALY":280.7351,"EPHEMERIS_TYPE":0,"CLASSIFICATION_TYPE":"U","NORAD_CAT_ID":57946,"ELEMENT_SET_NO":999,"REV_AT_EPOCH":13728,"BSTAR":2.904023e-6,"MEAN_MOTION_DOT":-2.73e-6,"MEAN_MOTION_DDOT":0},{"OBJECT_NAME":"SCS-01 M","OBJECT_ID":"2025-100M","EPOCH":"2026-03-09T23:50:15.541152","MEAN_MOTION":15.31880861,"ECCENTRICITY":0.00078021,"INCLINATION":97.3725,"RA_OF_ASC_NODE":145.6908,"ARG_OF_PERICENTER":292.3826,"MEAN_ANOMALY":67.6588,"EPHEMERIS_TYPE":0,"CLASSIFICATION_TYPE":"U","NORAD_CAT_ID":63993,"ELEMENT_SET_NO":999,"REV_AT_EPOCH":4565,"BSTAR":0.0012010051,"MEAN_MOTION_DOT":0.00037061,"MEAN_MOTION_DDOT":0}]
